NORAD_CAT_ID,OBJECT_NAME,OBJECT_TYPE,EPOCH,MEAN_MOTION,ECCENTRICITY,INCLINATION,RA_OF_ASC_NODE,ARG_OF_PERICENTER,MEAN_ANOMALY,BSTAR,MEAN_MOTION_DOT,MEAN_MOTION_DDOT,TLE_LINE0,TLE_LINE1,TLE_LINE2,SEMIMAJOR_AXIS,PERIOD,APOGEE,PERIGEE,DECAYED
53629.0,STARLINK-4602,PAYLOAD,2024-04-30 22:45:54,15.08846748,0.0001614,53.2193,36.2991,86.208,273.9096,0.00020369,2.956e-05,0.0,0 STARLINK-4602,1 53629U 22104AT  24121.94854179  .00002956  00000-0  20369-3 0  9996,2 53629  53.2193  36.2991 0001614  86.2080 273.9096 15.08846748 93443,6917.86,95.437,540.841,538.608,0.0
53629.0,STARLINK-4602,PAYLOAD,2024-05-01 11:28:59,15.08844983,0.000162,53.2171,33.9198,86.6464,273.4714,0.00017774,2.542e-05,0.0,0 STARLINK-4602,1 53629U 22104AT  24122.47846082  .00002542  00000-0  17774-3 0  9996,2 53629  53.2171  33.9198 0001620  86.6464 273.4714 15.08844983 93529,6917.865,95.437,540.851,538.609,0.0
53629.0,STARLINK-4602,PAYLOAD,2024-05-02 00:12:03,15.08847942,0.0001487,53.2175,31.5428,84.3306,275.7856,0.00020796,3.024e-05,0.0,0 STARLINK-4602,1 53629U 22104AT  24123.00837849  .00003024  00000-0  20796-3 0  9991,2 53629  53.2175  31.5428 0001487  84.3306 275.7856 15.08847942 92916,6917.856,95.437,540.75,538.692,0.0
53629.0,STARLINK-4602,PAYLOAD,2024-05-02 11:19:45,15.08850457,0.0001442,53.2179,29.4616,82.7859,277.3297,0.00012752,1.743e-05,0.0,0 STARLINK-4602,1 53629U 22104AT  24123.47205505  .00001743  00000-0  12752-3 0  9999,2 53629  53.2179  29.4616 0001442  82.7859 277.3297 15.08850457 93677,6917.848,95.437,540.711,538.716,0.0
53629.0,STARLINK-4602,PAYLOAD,2024-05-02 20:52:04,15.0884276,0.000156,53.2164,27.6775,83.4453,276.6717,1.5109e-05,-4.8e-07,0.0,0 STARLINK-4602,1 53629U 22104AT  24123.86949782 -.00000048  00000-0  15109-4 0  9992,2 53629  53.2164  27.6775 0001560  83.4453 276.6717 15.08842760 93044,6917.872,95.437,540.816,538.658,0.0
53629.0,STARLINK-4602,PAYLOAD,2024-05-03 03:13:36,15.08855655,0.0001441,53.218,26.4843,98.2647,261.8509,0.00011046,1.471e-05,0.0,0 STARLINK-4602,1 53629U 22104AT  24124.13444886  .00001471  00000-0  11046-3 0  9993,2 53629  53.2180  26.4843 0001441  98.2647 261.8509 15.08855655 93088,6917.833,95.437,540.694,538.701,0.0
53629.0,STARLINK-4602,PAYLOAD,2024-05-03 20:42:52,15.08820278,0.0001375,53.2169,23.2167,72.0368,288.0774,-0.00023388,-4.006e-05,0.0,0 STARLINK-4602,1 53629U 22104AT  24124.86311216 -.00004006  00000-0 -23388-3 0  9994,2 53629  53.2169  23.2167 0001375  72.0368 288.0774 15.08820278 93195,6917.941,95.439,540.757,538.854,0.0
53629.0,STARLINK-4602,PAYLOAD,2024-05-03 22:18:16,15.08822769,0.0001403,53.2183,22.9195,77.0704,283.0445,-0.00013422,-2.422e-05,0.0,0 STARLINK-4602,1 53629U 22104AT  24124.92935815 -.00002422  00000-0 -13422-3 0  9996,2 53629  53.2183  22.9195 0001403  77.0704 283.0445 15.08822769 93893,6917.933,95.439,540.769,538.827,0.0
53629.0,STARLINK-4602,PAYLOAD,2024-05-04 20:33:39,15.08834591,0.0001327,53.2191,18.756,83.4542,276.6601,6.2065e-05,7e-06,0.0,0 STARLINK-4602,1 53629U 22104AT  24125.85671290  .00000700  00000-0  62065-4 0  9996,2 53629  53.2191  18.7560 0001327  83.4542 276.6601 15.08834591 93345,6917.897,95.438,540.68,538.844,0.0
53629.0,STARLINK-4602,PAYLOAD,2024-05-05 02:55:12,15.08842831,0.0001279,53.2184,17.5653,78.4049,281.7087,0.00022595,3.31e-05,0.0,0 STARLINK-4602,1 53629U 22104AT  24126.12167130  .00003310  00000-0  22595-3 0  9993,2 53629  53.2184  17.5653 0001279  78.4049 281.7087 15.08842831 94071,6917.872,95.437,540.622,538.852,0.0
53629.0,STARLINK-4602,PAYLOAD,2024-05-05 20:24:26,15.08850695,0.0001295,53.2182,14.2946,71.9166,288.1967,0.00049918,7.668e-05,0.0,0 STARLINK-4602,1 53629U 22104AT  24126.85030892  .00007668  00000-0  49918-3 0  9995,2 53629  53.2182  14.2946 0001295  71.9166 288.1967 15.08850695 93494,6917.848,95.437,540.609,538.817,0.0
53629.0,STARLINK-4602,PAYLOAD,2024-05-05 21:59:49,15.08855548,0.0001303,53.218,13.9973,72.0825,288.0309,0.0005846,9.032e-05,0.0,0 STARLINK-4602,1 53629U 22104AT  24126.91654778  .00009032  00000-0  58460-3 0  9996,2 53629  53.2180  13.9973 0001303  72.0825 288.0309 15.08855548 94191,6917.833,95.437,540.599,538.796,0.0
53629.0,STARLINK-4602,PAYLOAD,2024-05-06 04:21:21,15.08891353,0.0001298,53.2185,12.8085,75.1481,284.9655,0.0014424,0.00022775,0.0,0 STARLINK-4602,1 53629U 22104AT  24127.18149767  .00022775  00000-0  14424-2 0  9993,2 53629  53.2185  12.8085 0001298  75.1481 284.9655 15.08891353 93544,6917.723,95.434,540.486,538.691,0.0
53629.0,STARLINK-4602,PAYLOAD,2024-05-06 09:07:31,15.08851128,0.0001212,53.2178,11.9165,87.7705,272.3426,-0.00012221,-2.233e-05,0.0,0 STARLINK-4602,1 53629U 22104AT  24127.38022315 -.00002233  00000-0 -12221-3 0  9997,2 53629  53.2178  11.9165 0001212  87.7705 272.3426 15.08851128 93575,6917.846,95.437,540.55,538.873,0.0
53629.0,STARLINK-4602,PAYLOAD,2024-05-06 21:50:36,15.08856697,0.0001226,53.2174,9.5375,90.1965,269.9168,0.00052637,8.103e-05,0.0,0 STARLINK-4602,1 53629U 22104AT  24127.91014082  .00008103  00000-0  52637-3 0  9993,2 53629  53.2174   9.5375 0001226  90.1965 269.9168 15.08856697 94345,6917.829,95.436,540.542,538.846,0.0
53629.0,STARLINK-4602,PAYLOAD,2024-05-07 08:58:18,15.08840006,0.0001046,53.2175,7.4568,101.5075,258.6034,0.00062115,9.612e-05,0.0,0 STARLINK-4602,1 53629U 22104AT  24128.37382400  .00009612  00000-0  62115-3 0  9994,2 53629  53.2175   7.4568 0001046 101.5075 258.6034 15.08840006 93721,6917.88,95.438,540.469,539.022,0.0
53629.0,STARLINK-4602,PAYLOAD,2024-05-07 20:06:00,15.08836137,0.0001058,53.217,5.3756,95.1893,264.922,0.0010137,0.0001588,0.0,0 STARLINK-4602,1 53629U 22104AT  24128.83750762  .00015880  00000-0  10137-2 0  9995,2 53629  53.2170   5.3756 0001058  95.1893 264.9220 15.08836137 93795,6917.892,95.438,540.489,539.025,0.0
53629.0,STARLINK-4602,PAYLOAD,2024-05-07 21:41:23,15.0883831,0.0001088,53.2167,5.0782,93.3295,266.7821,0.0012077,0.00018984,0.0,0 STARLINK-4602,1 53629U 22104AT  24128.90374785  .00018984  00000-0  12077-2 0  9993,2 53629  53.2167   5.0782 0001088  93.3295 266.7821 15.08838310 94496,6917.886,95.438,540.503,538.998,0.0
53629.0,STARLINK-4602,PAYLOAD,2024-05-08 05:38:19,15.08835413,0.0001105,53.2163,3.5915,91.7492,268.3627,0.00093315,0.00014592,0.0,0 STARLINK-4602,1 53629U 22104AT  24129.23495025  .00014592  00000-0  93315-3 0  9997,2 53629  53.2163   3.5915 0001105  91.7492 268.3627 15.08835413 93856,6917.894,95.438,540.524,538.995,0.0
53629.0,STARLINK-4602,PAYLOAD,2024-05-08 15:10:38,15.08848405,0.0001145,53.2151,1.8076,113.1054,247.0059,0.0014257,0.0002248,0.0,0 STARLINK-4602,1 53629U 22104AT  24129.63238927  .00022480  00000-0  14257-2 0  9999,2 53629  53.2151   1.8076 0001145 113.1054 247.0059 15.08848405 94601,6917.855,95.437,540.512,538.928,0.0
53629.0,STARLINK-4602,PAYLOAD,2024-05-08 21:32:10,15.08854242,0.0001189,53.2144,0.6169,90.6,269.5128,0.0015301,0.00024157,0.0,0 STARLINK-4602,1 53629U 22104AT  24129.89734880  .00024157  00000-0  15301-2 0  9990,2 53629  53.2144   0.6169 0001189  90.6000 269.5128 15.08854242 94647,6917.837,95.437,540.524,538.879,0.0
53629.0,STARLINK-4602,PAYLOAD,2024-05-09 08:39:52,15.08841224,0.0001153,53.2153,358.5353,83.9812,276.1312,0.00026367,3.911e-05,0.0,0 STARLINK-4602,1 53629U 22104AT  24130.36102896  .00003911  00000-0  26367-3 0  9990,2 53629  53.2153 358.5353 0001153  83.9812 276.1312 15.08841224 94021,6917.877,95.437,540.539,538.944,0.0
53629.0,STARLINK-4602,PAYLOAD,2024-05-09 21:22:57,15.08859369,0.0001136,53.2164,356.1565,75.9927,284.1191,0.0021195,0.00033623,0.0,0 STARLINK-4602,1 53629U 22104AT  24130.89094810  .00033623  00000-0  21195-2 0  9990,2 53629  53.2164 356.1565 0001136  75.9927 284.1191 15.08859369 94798,6917.821,95.436,540.472,538.9,0.0
53629.0,STARLINK-4602,PAYLOAD,2024-05-10 03:44:30,15.08873908,0.0001167,53.2164,354.9673,72.2474,287.8645,0.0023459,0.00037279,0.0,0 STARLINK-4602,1 53629U 22104AT  24131.15590372  .00037279  00000-0  23459-2 0  9990,2 53629  53.2164 354.9673 0001167  72.2474 287.8645 15.08873908 94143,6917.777,95.435,540.449,538.834,0.0
53629.0,STARLINK-4602,PAYLOAD,2024-05-10 08:30:39,15.08849142,0.0001166,53.2159,354.075,93.1049,267.0077,0.0010283,0.00016119,0.0,0 STARLINK-4602,1 53629U 22104AT  24131.35462749  .00016119  00000-0  10283-2 0  9999,2 53629  53.2159 354.0750 0001166  93.1049 267.0077 15.08849142 94178,6917.852,95.437,540.524,538.911,0.0
53629.0,STARLINK-4602,PAYLOAD,2024-05-10 14:52:12,15.08852872,9.62e-05,53.2168,352.8856,108.7801,251.3296,0.0015681,0.00024765,0.0,0 STARLINK-4602,1 53629U 22104AT  24131.61958577  .00024765  00000-0  15681-2 0  9990,2 53629  53.2168 352.8856 0000962 108.7801 251.3296 15.08852872 94907,6917.841,95.437,540.372,539.041,0.0
53629.0,STARLINK-4602,PAYLOAD,2024-05-10 21:13:44,15.08883813,9.96e-05,53.2169,351.6963,87.8918,272.2188,0.0036829,0.00058886,0.0,0 STARLINK-4602,1 53629U 22104AT  24131.88454303  .00058886  00000-0  36829-2 0  9995,2 53629  53.2169 351.6963 0000996  87.8918 272.2188 15.08883813 94942,6917.746,95.435,540.3,538.922,0.0
53629.0,STARLINK-4602,PAYLOAD,2024-05-11 05:10:38,15.08925311,0.0001115,53.217,350.2102,89.7274,270.3846,0.0040332,0.0006464,0.0,0 STARLINK-4602,1 53629U 22104AT  24132.21572844  .00064640  00000-0  40332-2 0  9993,2 53629  53.2170 350.2102 0001115  89.7274 270.3846 15.08925311 94304,6917.62,95.432,540.256,538.713,0.0
53629.0,STARLINK-4602,PAYLOAD,2024-05-11 21:04:29,15.08822609,8.39e-05,53.2176,347.2351,80.464,279.6447,0.0013853,0.00021817,0.0,0 STARLINK-4602,1 53629U 22104AT  24132.87812258  .00021817  00000-0  13853-2 0  9998,2 53629  53.2176 347.2351 0000839  80.4640 279.6447 15.08822609 94405,6917.934,95.439,540.379,539.218,0.0
53629.0,STARLINK-4602,PAYLOAD,2024-05-11 22:39:53,15.08804945,7.97e-05,53.2171,346.9378,80.7549,279.3533,0.0013792,0.00021709,0.0,0 STARLINK-4602,1 53629U 22104AT  24132.94436471  .00021709  00000-0  13792-2 0  9997,2 53629  53.2171 346.9378 0000797  80.7549 279.3533 15.08804945 94416,6917.988,95.44,540.404,539.301,0.0
